{
  "type": "FeatureCollection",
  "features": [
    {
      "type": "Feature",
      "properties": {
        "norad_id": 66573,
        "name": "STARLINK-35650",
        "group": "last-30-days",
        "lat": 16.82323406133794,
        "lon": -19.007267641276425,
        "alt_km": 340.2602232491754,
        "timestamp": "2025-12-02T19:35:49.344086+00:00",
        "meta_object_name": "STARLINK-35650",
        "meta_object_id": "2025-268S",
        "meta_epoch": "2025-12-02T12:00:05.998752",
        "meta_mean_motion": 15.76895222,
        "meta_eccentricity": 0.0001762,
        "meta_inclination": 42.9975,
        "meta_ra_of_asc_node": 181.8527,
        "meta_arg_of_pericenter": 266.1154,
        "meta_mean_anomaly": 250.5737,
        "meta_ephemeris_type": 0,
        "meta_classification_type": "U",
        "meta_norad_cat_id": 66573,
        "meta_element_set_no": 999,
        "meta_rev_at_epoch": 302,
        "meta_bstar": -0.010718,
        "meta_mean_motion_dot": -0.01563382,
        "meta_mean_motion_ddot": 0,
        "tle_line1": "1 66573U 25268S   25336.50006943 -.01563382  00000+0 -10718-1 0  9993",
        "tle_line2": "2 66573  42.9975 181.8527 0001762 266.1154 250.5737 15.76895222  3029"
      },
      "geometry": {
        "type": "Point",
        "coordinates": [
          -19.007267641276425,
          16.82323406133794
        ]
      }
    },
    {
      "type": "Feature",
      "properties": {
        "norad_id": 66574,
        "name": "STARLINK-35812",
        "group": "last-30-days",
        "lat": 15.568002458877492,
        "lon": -17.47440546717191,
        "alt_km": 340.2573085542308,
        "timestamp": "2025-12-02T19:35:49.344096+00:00",
        "meta_object_name": "STARLINK-35812",
        "meta_object_id": "2025-268T",
        "meta_epoch": "2025-12-02T12:00:05.998752",
        "meta_mean_motion": 15.76895272,
        "meta_eccentricity": 0.0001327,
        "meta_inclination": 42.998,
        "meta_ra_of_asc_node": 181.8476,
        "meta_arg_of_pericenter": 258.7114,
        "meta_mean_anomaly": 259.9312,
        "meta_ephemeris_type": 0,
        "meta_classification_type": "U",
        "meta_norad_cat_id": 66574,
        "meta_element_set_no": 999,
        "meta_rev_at_epoch": 302,
        "meta_bstar": -0.011066,
        "meta_mean_motion_dot": -0.01639258,
        "meta_mean_motion_ddot": 0,
        "tle_line1": "1 66574U 25268T   25336.50006943 -.01639258  00000+0 -11066-1 0  9997",
        "tle_line2": "2 66574  42.9980 181.8476 0001327 258.7114 259.9312 15.76895272  3026"
      },
      "geometry": {
        "type": "Point",
        "coordinates": [
          -17.47440546717191,
          15.568002458877492
        ]
      }
    },
    {
      "type": "Feature",
      "properties": {
        "norad_id": 66575,
        "name": "STARLINK-35810",
        "group": "last-30-days",
        "lat": 14.292098681167575,
        "lon": -15.948536314048226,
        "alt_km": 340.9731883811155,
        "timestamp": "2025-12-02T19:35:49.344108+00:00",
        "meta_object_name": "STARLINK-35810",
        "meta_object_id": "2025-268U",
        "meta_epoch": "2025-12-02T12:00:05.998752",
        "meta_mean_motion": 15.76832915,
        "meta_eccentricity": 0.0001596,
        "meta_inclination": 42.9976,
        "meta_ra_of_asc_node": 181.8426,
        "meta_arg_of_pericenter": 267.2552,
        "meta_mean_anomaly": 253.4408,
        "meta_ephemeris_type": 0,
        "meta_classification_type": "U",
        "meta_norad_cat_id": 66575,
        "meta_element_set_no": 999,
        "meta_rev_at_epoch": 302,
        "meta_bstar": -0.011576,
        "meta_mean_motion_dot": -0.01702003,
        "meta_mean_motion_ddot": 0,
        "tle_line1": "1 66575U 25268U   25336.50006943 -.01702003  00000+0 -11576-1 0  9993",
        "tle_line2": "2 66575  42.9976 181.8426 0001596 267.2552 253.4408 15.76832915  3026"
      },
      "geometry": {
        "type": "Point",
        "coordinates": [
          -15.948536314048226,
          14.292098681167575
        ]
      }
    },
    {
      "type": "Feature",
      "properties": {
        "norad_id": 66576,
        "name": "STARLINK-35814",
        "group": "last-30-days",
        "lat": 13.001613359672751,
        "lon": -14.434425643332542,
        "alt_km": 341.4398296565505,
        "timestamp": "2025-12-02T19:35:49.344118+00:00",
        "meta_object_name": "STARLINK-35814",
        "meta_object_id": "2025-268V",
        "meta_epoch": "2025-12-02T12:00:05.998752",
        "meta_mean_motion": 15.76780453,
        "meta_eccentricity": 0.0001596,
        "meta_inclination": 42.9979,
        "meta_ra_of_asc_node": 181.8371,
        "meta_arg_of_pericenter": 272.1202,
        "meta_mean_anomaly": 250.605,
        "meta_ephemeris_type": 0,
        "meta_classification_type": "U",
        "meta_norad_cat_id": 66576,
        "meta_element_set_no": 999,
        "meta_rev_at_epoch": 302,
        "meta_bstar": -0.011774,
        "meta_mean_motion_dot": -0.01724032,
        "meta_mean_motion_ddot": 0,
        "tle_line1": "1 66576U 25268V   25336.50006943 -.01724032  00000+0 -11774-1 0  9990",
        "tle_line2": "2 66576  42.9979 181.8371 0001596 272.1202 250.6050 15.76780453  3027"
      },
      "geometry": {
        "type": "Point",
        "coordinates": [
          -14.434425643332542,
          13.001613359672751
        ]
      }
    },
    {
      "type": "Feature",
      "properties": {
        "norad_id": 66577,
        "name": "STARLINK-35815",
        "group": "last-30-days",
        "lat": 11.707872912850315,
        "lon": -12.942244231102018,
        "alt_km": 341.6653133607115,
        "timestamp": "2025-12-02T19:35:49.344128+00:00",
        "meta_object_name": "STARLINK-35815",
        "meta_object_id": "2025-268W",
        "meta_epoch": "2025-12-02T12:00:05.998752",
        "meta_mean_motion": 15.76700894,
        "meta_eccentricity": 0.0001417,
        "meta_inclination": 42.9976,
        "meta_ra_of_asc_node": 181.832,
        "meta_arg_of_pericenter": 265.4114,
        "meta_mean_anomaly": 259.3612,
        "meta_ephemeris_type": 0,
        "meta_classification_type": "U",
        "meta_norad_cat_id": 66577,
        "meta_element_set_no": 999,
        "meta_rev_at_epoch": 302,
        "meta_bstar": -0.01192,
        "meta_mean_motion_dot": -0.01737314,
        "meta_mean_motion_ddot": 0,
        "tle_line1": "1 66577U 25268W   25336.50006943 -.01737314  00000+0 -11920-1 0  9991",
        "tle_line2": "2 66577  42.9976 181.8320 0001417 265.4114 259.3612 15.76700894  3029"
      },
      "geometry": {
        "type": "Point",
        "coordinates": [
          -12.942244231102018,
          11.707872912850315
        ]
      }
    },
    {
      "type": "Feature",
      "properties": {
        "norad_id": 66578,
        "name": "STARLINK-35743",
        "group": "last-30-days",
        "lat": 10.42093767527054,
        "lon": -11.480295807728881,
        "alt_km": 341.9704649121559,
        "timestamp": "2025-12-02T19:35:49.344138+00:00",
        "meta_object_name": "STARLINK-35743",
        "meta_object_id": "2025-268X",
        "meta_epoch": "2025-12-02T12:00:05.998752",
        "meta_mean_motion": 15.76678572,
        "meta_eccentricity": 0.0001454,
        "meta_inclination": 42.9978,
        "meta_ra_of_asc_node": 181.827,
        "meta_arg_of_pericenter": 268.9241,
        "meta_mean_anomaly": 257.8048,
        "meta_ephemeris_type": 0,
        "meta_classification_type": "U",
        "meta_norad_cat_id": 66578,
        "meta_element_set_no": 999,
        "meta_rev_at_epoch": 302,
        "meta_bstar": -0.011942,
        "meta_mean_motion_dot": -0.01738581,
        "meta_mean_motion_ddot": 0,
        "tle_line1": "1 66578U 25268X   25336.50006943 -.01738581  00000+0 -11942-1 0  9993",
        "tle_line2": "2 66578  42.9978 181.8270 0001454 268.9241 257.8048 15.76678572  3029"
      },
      "geometry": {
        "type": "Point",
        "coordinates": [
          -11.480295807728881,
          10.42093767527054
        ]
      }
    },
    {
      "type": "Feature",
      "properties": {
        "norad_id": 66579,
        "name": "STARLINK-35868",
        "group": "last-30-days",
        "lat": 9.111014077806727,
        "lon": -10.012125161058501,
        "alt_km": 342.264905938815,
        "timestamp": "2025-12-02T19:35:49.344150+00:00",
        "meta_object_name": "STARLINK-35868",
        "meta_object_id": "2025-268Y",
        "meta_epoch": "2025-12-02T12:00:05.998752",
        "meta_mean_motion": 15.76613838,
        "meta_eccentricity": 0.0001796,
        "meta_inclination": 42.9977,
        "meta_ra_of_asc_node": 181.822,
        "meta_arg_of_pericenter": 261.3106,
        "meta_mean_anomaly": 267.4708,
        "meta_ephemeris_type": 0,
        "meta_classification_type": "U",
        "meta_norad_cat_id": 66579,
        "meta_element_set_no": 999,
        "meta_rev_at_epoch": 302,
        "meta_bstar": -0.012315,
        "meta_mean_motion_dot": -0.01781888,
        "meta_mean_motion_ddot": 0,
        "tle_line1": "1 66579U 25268Y   25336.50006943 -.01781888  00000+0 -12315-1 0  9997",
        "tle_line2": "2 66579  42.9977 181.8220 0001796 261.3106 267.4708 15.76613838  3024"
      },
      "geometry": {
        "type": "Point",
        "coordinates": [
          -10.012125161058501,
          9.111014077806727
        ]
      }
    }
  ]
}